16P Brooks                                     2021 04 18.5479  1.880504       0.486255 245.3126 138.8569   3.0107   7.5  10.0
17P Holmes                                     2021 02 19.7494  2.085182       0.427067  24.6084 326.6276  19.0192  10.0   6.0
18D Perrine-Mrkos                              2024 08 29.213   1.59363        0.58948  238.226  158.471   17.656    9.0   4.0
19P Borrelly                                   2022 02 01.9985  1.306250       0.637896 351.9683  74.2189  29.3132   4.5  10.0
21P Giacobini-Zinner                           2025 03 25.5472  1.008994       0.711202 172.9124 195.3425  32.0552  11.4   4.0
22P Kopff                                      2022 03 18.4074  1.543523       0.550500 162.9350 120.6244   4.7485   3.0  10.4
23P Brorsen-Metcalf                            1989 08 20.7432  0.467003       0.972433 129.5102 311.6635  19.3326  10.0   6.0
24P Schaumasse                                 2026 01 08.5083  1.184707       0.707891  58.3806  78.3861  11.5061   6.5  14.0
25D Neujmin 2                                  2025 05 11.0255  1.443052       0.551925 244.6989 280.2091   2.8025  12.5   6.0
26P Grigg-Skjellerup                           2023 12 25.3424  1.083898       0.640638   2.1459 211.5406  22.4329  12.0  16.0
27P Crommelin                                  2011 07 27.7947  0.739965       0.919391 195.8353 250.6976  29.4195  12.0   8.0
28P Neujmin                                    2021 03 11.4815  1.583070       0.773300 347.4791 346.3654  14.3060   8.5   6.0
29P Schwassmann-Wachmann                       2019 05 01.5803  5.784287       0.044252  51.8427 312.4052   9.3600   4.0   4.0
30P Reinmuth                                   2024 08 17.1287  1.813401       0.514854   9.4542 117.2622   8.0510   9.5   6.0
31P Schwassmann-Wachmann                       2028 03 19.3727  3.417634       0.192759  17.8267 114.1095   4.5493   5.0   8.0
32P ComasSola                                  2024 04 20.5980  2.024613       0.555525  54.6682  54.5289   9.9209   6.5   8.0
33P Daniel                                     2024 11 11.3567  2.241638       0.452100  20.4073  66.2876  22.2943  10.0  12.0
34D Gale                                       2026 08 25.4962  1.213291       0.757946 218.0656  57.8685  10.5828   9.0   4.0
35P Herschel-Rigollet                          2092 03 13.313   0.73028        0.97441   29.033  356.598   65.173    9.0   4.0
36P Whipple                                    2020 06 02.3034  3.026189       0.268842 201.1358 181.8413   9.9512   8.5   6.0
37P Forbes                                     2024 10 11.2844  1.617599       0.532858 330.0741 314.5580   8.9480  13.8   4.0
38P Stephan-Oterma                             2018 11 12.7900  1.577643       0.859728 359.5171  77.8866  18.3939   3.5  12.0
39P Oterma                                     2023 07 26.2033  5.710354       0.201416 106.5374 293.6923   1.5711   7.0   6.0
40P Vaisala                                    2025 11 10.9455  1.815803       0.634302  48.8482 132.2442  11.4767   5.5  12.0
41P Tuttle-Giacobini-Kresak                    2022 09 13.6664  1.050992       0.659700  62.2335 140.9817   9.2181  10.0  16.0
42P Neujmin                                    2026 01 14.9639  2.027321       0.584188 147.2019 150.1627   3.9895  13.0   6.0
43P Wolf-Harrington                            2025 08 05.4457  2.440487       0.435445 224.0253 244.0005   9.3337   8.0   6.0
44P Reinmuth                                   2022 04 22.8457  2.112574       0.427151  58.0232 286.4270   5.8969   8.3   6.0
45P Honda-Mrkos-Pajdusakova                    2022 04 27.0852  0.557038       0.817744 327.9241  87.6960   4.3232  13.5   8.0
46P Wirtanen                                   2024 05 19.1068  1.054757       0.658804 356.3278  82.1638  11.7496  14.0   6.0
47P Ashbrook-Jackson                           2025 10 27.7077  2.807706       0.318603 357.8317 356.9067  13.0380   1.0  11.2
48P Johnson                                    2025 03 02.5924  2.006350       0.426902 216.7661 110.0711  12.2002  10.0   6.0
49P Arend-Rigaux                               2025 04 10.6724  1.431719       0.598845 332.9325 118.7931  19.0578  11.3   4.4
50P Arend                                      2024 05 12.8157  1.922265       0.529821  49.3576 355.1725  19.1011   9.5   6.0
51P Harrington                                 2022 10 01.1865  1.692658       0.543214 269.2404  83.6609   5.4266  10.0   8.0
51P-A Harrington                               2022 10 03.7643  1.692549       0.543402  83.6452 269.2373   5.4269  10.0   8.0
51P-D Harrington                               2022 10 01.6095  1.692340       0.543344 269.2586  83.6492   5.4270  16.0   8.0
52P Harrington-Abell                           2021 10 05.4010  1.774603       0.540607 139.5595 336.8019  10.2320  13.5   6.0
53P VanBiesbroeck                              2028 12 26.9956  2.446561       0.549862 134.4433 148.8392   6.6054   7.7   4.8
54P de Vico-Swift-NEAT                         2024 09 03.8803  2.172010       0.426359   1.9093 358.8500   6.0641   9.0   4.0
55P Tempel-Tuttle                              2031 05 21.2961  0.976423       0.905657 172.4566 235.4179 162.4965   9.0   4.0
56P Slaughter-Burnham                          2027 12 18.6421  2.488552       0.508649  44.1214 345.9491   8.1569   8.5   6.0
57P duToit-Neujmin-Delporte                    2021 10 16.9123  1.718696       0.500756 115.1023 188.7766   2.8524  12.5   6.0
58P Jackson-Neujmin                            2020 05 27.6762  1.380521       0.662404 200.5555 159.0660  13.1016  15.5   6.0
59P Kearns-Kwee                                2028 03 15.2993  2.345273       0.476680 127.5727 312.7578   9.3487   7.0   6.0
60P Tsuchinshan                                2025 07 20.7997  1.644785       0.533657 216.9529 267.4438   3.5812  11.5   6.0
61P Shajn-Schaldach                            2022 10 23.7227  2.126283       0.423596 221.6520 162.9624   5.9993   6.0  10.0
62P Tsuchinshan                                2023 12 25.1096  1.264983       0.624666  47.2956  68.6706   4.7380   8.0  10.0
63P Wild                                       2026 07 07.0618  1.967727       0.650338 168.9069 357.9095  19.6731  10.5   6.0
64P Swift-Gehrels                              2028 03 30.0290  1.385740       0.688760  97.2477 299.8416   8.9503   9.5  12.0
65P Gunn                                       2025 06 16.9339  2.925159       0.248158 213.7864  61.9770   9.1759   5.0   6.0
66P duToit                                     2018 05 16.3158  1.303224       0.785332 257.4755  21.7881  18.6400  15.0   4.0
67P Churyumov-Gerasimenko                      2021 11 02.3387  1.210294       0.649998  22.1664  36.3289   3.8714  11.0   4.0
68P Klemola                                    2019 11 08.3334  1.802923       0.636603 153.2647 175.0615  11.1083  12.6   4.0
69P Taylor                                     2026 11 12.3564  2.273983       0.414359 343.4176 104.8040  22.0559   9.5  12.0
70P Kojima                                     2021 11 03.2502  2.006477       0.454252   1.7770 119.2424   6.5997  11.0   6.0
71P Clark                                      2023 01 22.9514  1.589949       0.493924 209.1736  59.3823   9.4396   9.8   6.0
72P Denning-Fujikawa                           2023 06 15.7666  0.781138       0.818634 346.7347  26.6982  10.9487  17.5  10.0
73P Schwassmann-Wachmann                       2022 08 26.4959  0.966586       0.687279 199.4348  69.5247  11.2730  11.5   6.0
73P-B Schwassmann-Wachmann B                   2022 08 30.5287  0.966098       0.687559  69.5418 199.3861  11.2197   9.0   4.0
73P-C Schwassmann-Wachmann                     2022 08 26.4660  0.966423       0.687317  69.5326 199.4214  11.2141   9.0   4.0
73P-E Schwassmann-Wachmann                     2022 09 08.3133  0.965843       0.688024  69.5542 199.3606  11.2271   9.0   4.0
73P-G Schwassmann-Wachmann                     2006 06 08.097   0.93920        0.69330  198.772   69.909   11.388    9.0   4.0
73P-H Schwassmann-Wachmann                     2006 06 08.282   0.93918        0.69330  198.778   69.903   11.389    9.0   4.0
73P-J Schwassmann-Wachmann                     2006 06 08.142   0.93966        0.69330  198.673   69.983   11.386    9.0   4.0
73P-K Schwassmann-Wachmann                     2006 06 08.224   0.93903        0.69330  198.809   69.881   11.390    9.0   4.0
73P-L Schwassmann-Wachmann                     2006 06 08.341   0.93914        0.69330  198.772   69.911   11.388    9.0   4.0
73P-M Schwassmann-Wachmann                     2006 06 08.262   0.93912        0.69330  198.787   69.895   11.389    9.0   4.0
73P-N Schwassmann-Wachmann                     2006 06 08.262   0.93920        0.69330  198.754   69.909   11.389    9.0   4.0
73P-P Schwassmann-Wachmann                     2006 06 07.873   0.93917        0.69330  198.783   69.900   11.390    9.0   4.0
73P-Q Schwassmann-Wachmann                     2006 06 07.725   0.93941        0.69330  198.717   69.944   11.387    9.0   4.0
73P-R Schwassmann-Wachmann                     2006 06 08.186   0.93918        0.69330  198.776   69.904   11.388    9.0   4.0
73P-S Schwassmann-Wachmann                     2006 06 08.689   0.98977        0.69330  188.229   77.364   11.127    9.0   4.0
73P-T Schwassmann-Wachmann                     2022 08 25.2968  0.966454       0.687191 199.4140  69.5303  11.2768   9.0   4.0
73P-U Schwassmann-Wachmann                     2006 06 09.016   0.93962        0.69330  198.659   69.994   11.384    9.0   4.0
73P-V Schwassmann-Wachmann                     2006 06 08.478   0.91217        0.69330  204.943   65.236   11.651    9.0   4.0
73P-W Schwassmann-Wachmann                     2006 06 08.501   0.93906        0.69330  198.803   69.884   11.390    9.0   4.0
73P-X Schwassmann-Wachmann                     2006 06 08.566   0.93913        0.69330  198.778   69.900   11.388    9.0   4.0
